[
  {
    "COMMENT": "GENERATED VIA SPACETRACK.ORG API",
    "ORIGINATOR": "18 SPCS",
    "NORAD_CAT_ID": "54754",
    "OBJECT_NAME": "SWOT",
    "OBJECT_TYPE": "PAYLOAD",
    "CLASSIFICATION_TYPE": "U",
    "INTLDES": "22173A",
    "EPOCH": "2023-03-16 19:13:33",
    "EPOCH_MICROSECONDS": "71808",
    "MEAN_MOTION": "14.09852393",
    "ECCENTRICITY": "0.0000909",
    "INCLINATION": "77.6053",
    "RA_OF_ASC_NODE": "202.104",
    "ARG_OF_PERICENTER": "211.6542",
    "MEAN_ANOMALY": "148.456",
    "EPHEMERIS_TYPE": "0",
    "ELEMENT_SET_NO": "999",
    "REV_AT_EPOCH": "1272",
    "BSTAR": "0.0001874",
    "MEAN_MOTION_DOT": "0.00000327",
    "MEAN_MOTION_DDOT": "0",
    "FILE": "3862592",
    "TLE_LINE0": "0 SWOT",
    "TLE_LINE1": "1 54754U 22173A   23075.80107722  .00000327  00000-0  18740-3 0  9999",
    "TLE_LINE2": "2 54754  77.6053 202.1040 0000909 211.6542 148.4560 14.09852393 12727",
    "OBJECT_ID": "2022-173A",
    "OBJECT_NUMBER": "54754",
    "SEMIMAJOR_AXIS": "7238.014",
    "PERIOD": "102.138",
    "APOGEE": "860.537",
    "PERIGEE": "859.221",
    "DECAYED": "0"
  },
  {
    "COMMENT": "GENERATED VIA SPACETRACK.ORG API",
    "ORIGINATOR": "18 SPCS",
    "NORAD_CAT_ID": "54754",
    "OBJECT_NAME": "SWOT",
    "OBJECT_TYPE": "PAYLOAD",
    "CLASSIFICATION_TYPE": "U",
    "INTLDES": "22173A",
    "EPOCH": "2023-03-17 07:08:52",
    "EPOCH_MICROSECONDS": "10016",
    "MEAN_MOTION": "14.09852693",
    "ECCENTRICITY": "0.0000912",
    "INCLINATION": "77.6054",
    "RA_OF_ASC_NODE": "201.4225",
    "ARG_OF_PERICENTER": "210.9461",
    "MEAN_ANOMALY": "149.1643",
    "EPHEMERIS_TYPE": "0",
    "ELEMENT_SET_NO": "999",
    "REV_AT_EPOCH": "1279",
    "BSTAR": "0.00018232",
    "MEAN_MOTION_DOT": "0.00000318",
    "MEAN_MOTION_DDOT": "0",
    "FILE": "3862910",
    "TLE_LINE0": "0 SWOT",
    "TLE_LINE1": "1 54754U 22173A   23076.29782419  .00000318  00000-0  18232-3 0  9991",
    "TLE_LINE2": "2 54754  77.6054 201.4225 0000912 210.9461 149.1643 14.09852693 12791",
    "OBJECT_ID": "2022-173A",
    "OBJECT_NUMBER": "54754",
    "SEMIMAJOR_AXIS": "7238.013",
    "PERIOD": "102.138",
    "APOGEE": "860.538",
    "PERIGEE": "859.218",
    "DECAYED": "0"
  },
  {
    "COMMENT": "GENERATED VIA SPACETRACK.ORG API",
    "ORIGINATOR": "18 SPCS",
    "NORAD_CAT_ID": "54754",
    "OBJECT_NAME": "SWOT",
    "OBJECT_TYPE": "PAYLOAD",
    "CLASSIFICATION_TYPE": "U",
    "INTLDES": "22173A",
    "EPOCH": "2023-03-17 13:57:37",
    "EPOCH_MICROSECONDS": "105344",
    "MEAN_MOTION": "14.09852854",
    "ECCENTRICITY": "0.0000923",
    "INCLINATION": "77.6054",
    "RA_OF_ASC_NODE": "201.0329",
    "ARG_OF_PERICENTER": "211.255",
    "MEAN_ANOMALY": "148.8552",
    "EPHEMERIS_TYPE": "0",
    "ELEMENT_SET_NO": "999",
    "REV_AT_EPOCH": "1283",
    "BSTAR": "0.00017844",
    "MEAN_MOTION_DOT": "0.00000311",
    "MEAN_MOTION_DDOT": "0",
    "FILE": "3863278",
    "TLE_LINE0": "0 SWOT",
    "TLE_LINE1": "1 54754U 22173A   23076.58167946  .00000311  00000-0  17844-3 0  9996",
    "TLE_LINE2": "2 54754  77.6054 201.0329 0000923 211.2550 148.8552 14.09852854 12836",
    "OBJECT_ID": "2022-173A",
    "OBJECT_NUMBER": "54754",
    "SEMIMAJOR_AXIS": "7238.012",
    "PERIOD": "102.138",
    "APOGEE": "860.545",
    "PERIGEE": "859.209",
    "DECAYED": "0"
  },
  {
    "COMMENT": "GENERATED VIA SPACETRACK.ORG API",
    "ORIGINATOR": "18 SPCS",
    "NORAD_CAT_ID": "54754",
    "OBJECT_NAME": "SWOT",
    "OBJECT_TYPE": "PAYLOAD",
    "CLASSIFICATION_TYPE": "U",
    "INTLDES": "22173A",
    "EPOCH": "2023-03-18 12:06:03",
    "EPOCH_MICROSECONDS": "667104",
    "MEAN_MOTION": "14.09853333",
    "ECCENTRICITY": "0.000092",
    "INCLINATION": "77.6056",
    "RA_OF_ASC_NODE": "199.7672",
    "ARG_OF_PERICENTER": "211.5456",
    "MEAN_ANOMALY": "148.5646",
    "EPHEMERIS_TYPE": "0",
    "ELEMENT_SET_NO": "999",
    "REV_AT_EPOCH": "1296",
    "BSTAR": "0.00016289",
    "MEAN_MOTION_DOT": "0.00000284",
    "MEAN_MOTION_DDOT": "0",
    "FILE": "3864166",
    "TLE_LINE0": "0 SWOT",
    "TLE_LINE1": "1 54754U 22173A   23077.50420911  .00000284  00000-0  16289-3 0  9994",
    "TLE_LINE2": "2 54754  77.6056 199.7672 0000920 211.5456 148.5646 14.09853333 12965",
    "OBJECT_ID": "2022-173A",
    "OBJECT_NUMBER": "54754",
    "SEMIMAJOR_AXIS": "7238.011",
    "PERIOD": "102.138",
    "APOGEE": "860.542",
    "PERIGEE": "859.210",
    "DECAYED": "0"
  },
  {
    "COMMENT": "GENERATED VIA SPACETRACK.ORG API",
    "ORIGINATOR": "18 SPCS",
    "NORAD_CAT_ID": "54754",
    "OBJECT_NAME": "SWOT",
    "OBJECT_TYPE": "PAYLOAD",
    "CLASSIFICATION_TYPE": "U",
    "INTLDES": "22173A",
    "EPOCH": "2023-03-18 18:54:48",
    "EPOCH_MICROSECONDS": "765024",
    "MEAN_MOTION": "14.09853454",
    "ECCENTRICITY": "0.0000914",
    "INCLINATION": "77.6057",
    "RA_OF_ASC_NODE": "199.3778",
    "ARG_OF_PERICENTER": "211.9941",
    "MEAN_ANOMALY": "148.116",
    "EPHEMERIS_TYPE": "0",
    "ELEMENT_SET_NO": "999",
    "REV_AT_EPOCH": "1300",
    "BSTAR": "0.00015956",
    "MEAN_MOTION_DOT": "0.00000278",
    "MEAN_MOTION_DDOT": "0",
    "FILE": "3864479",
    "TLE_LINE0": "0 SWOT",
    "TLE_LINE1": "1 54754U 22173A   23077.78806441  .00000278  00000-0  15956-3 0  9993",
    "TLE_LINE2": "2 54754  77.6057 199.3778 0000914 211.9941 148.1160 14.09853454 13002",
    "OBJECT_ID": "2022-173A",
    "OBJECT_NUMBER": "54754",
    "SEMIMAJOR_AXIS": "7238.010",
    "PERIOD": "102.138",
    "APOGEE": "860.537",
    "PERIGEE": "859.214",
    "DECAYED": "0"
  },
  {
    "COMMENT": "GENERATED VIA SPACETRACK.ORG API",
    "ORIGINATOR": "18 SPCS",
    "NORAD_CAT_ID": "54754",
    "OBJECT_NAME": "SWOT",
    "OBJECT_TYPE": "PAYLOAD",
    "CLASSIFICATION_TYPE": "U",
    "INTLDES": "22173A",
    "EPOCH": "2023-03-19 13:38:52",
    "EPOCH_MICROSECONDS": "739808",
    "MEAN_MOTION": "14.09853953",
    "ECCENTRICITY": "0.0000918",
    "INCLINATION": "77.6057",
    "RA_OF_ASC_NODE": "198.3067",
    "ARG_OF_PERICENTER": "211.2827",
    "MEAN_ANOMALY": "148.8276",
    "EPHEMERIS_TYPE": "0",
    "ELEMENT_SET_NO": "999",
    "REV_AT_EPOCH": "1311",
    "BSTAR": "0.0001588",
    "MEAN_MOTION_DOT": "0.00000277",
    "MEAN_MOTION_DDOT": "0",
    "FILE": "3865000",
    "TLE_LINE0": "0 SWOT",
    "TLE_LINE1": "1 54754U 22173A   23078.56866597  .00000277  00000-0  15880-3 0  9993",
    "TLE_LINE2": "2 54754  77.6057 198.3067 0000918 211.2827 148.8276 14.09853953 13113",
    "OBJECT_ID": "2022-173A",
    "OBJECT_NUMBER": "54754",
    "SEMIMAJOR_AXIS": "7238.009",
    "PERIOD": "102.138",
    "APOGEE": "860.538",
    "PERIGEE": "859.209",
    "DECAYED": "0"
  },
  {
    "COMMENT": "GENERATED VIA SPACETRACK.ORG API",
    "ORIGINATOR": "18 SPCS",
    "NORAD_CAT_ID": "54754",
    "OBJECT_NAME": "SWOT",
    "OBJECT_TYPE": "PAYLOAD",
    "CLASSIFICATION_TYPE": "U",
    "INTLDES": "22173A",
    "EPOCH": "2023-03-19 13:38:52",
    "EPOCH_MICROSECONDS": "739808",
    "MEAN_MOTION": "14.09853953",
    "ECCENTRICITY": "0.0000918",
    "INCLINATION": "77.6057",
    "RA_OF_ASC_NODE": "198.3067",
    "ARG_OF_PERICENTER": "211.2827",
    "MEAN_ANOMALY": "148.8276",
    "EPHEMERIS_TYPE": "0",
    "ELEMENT_SET_NO": "999",
    "REV_AT_EPOCH": "1311",
    "BSTAR": "0.0001588",
    "MEAN_MOTION_DOT": "0.00000277",
    "MEAN_MOTION_DDOT": "0",
    "FILE": "3865049",
    "TLE_LINE0": "0 SWOT",
    "TLE_LINE1": "1 54754U 22173A   23078.56866597  .00000277  00000-0  15880-3 0  9993",
    "TLE_LINE2": "2 54754  77.6057 198.3067 0000918 211.2827 148.8276 14.09853953 13113",
    "OBJECT_ID": "2022-173A",
    "OBJECT_NUMBER": "54754",
    "SEMIMAJOR_AXIS": "7238.009",
    "PERIOD": "102.138",
    "APOGEE": "860.538",
    "PERIGEE": "859.209",
    "DECAYED": "0"
  },
  {
    "COMMENT": "GENERATED VIA SPACETRACK.ORG API",
    "ORIGINATOR": "18 SPCS",
    "NORAD_CAT_ID": "54754",
    "OBJECT_NAME": "SWOT",
    "OBJECT_TYPE": "PAYLOAD",
    "CLASSIFICATION_TYPE": "U",
    "INTLDES": "22173A",
    "EPOCH": "2023-03-19 18:45:26",
    "EPOCH_MICROSECONDS": "554176",
    "MEAN_MOTION": "14.09854026",
    "ECCENTRICITY": "0.0000913",
    "INCLINATION": "77.6058",
    "RA_OF_ASC_NODE": "198.0147",
    "ARG_OF_PERICENTER": "212.3531",
    "MEAN_ANOMALY": "147.757",
    "EPHEMERIS_TYPE": "0",
    "ELEMENT_SET_NO": "999",
    "REV_AT_EPOCH": "1314",
    "BSTAR": "0.0001541",
    "MEAN_MOTION_DOT": "0.00000268",
    "MEAN_MOTION_DDOT": "0",
    "FILE": "3865354",
    "TLE_LINE0": "0 SWOT",
    "TLE_LINE1": "1 54754U 22173A   23078.78155734  .00000268  00000-0  15410-3 0  9990",
    "TLE_LINE2": "2 54754  77.6058 198.0147 0000913 212.3531 147.7570 14.09854026 13149",
    "OBJECT_ID": "2022-173A",
    "OBJECT_NUMBER": "54754",
    "SEMIMAJOR_AXIS": "7238.008",
    "PERIOD": "102.138",
    "APOGEE": "860.534",
    "PERIGEE": "859.212",
    "DECAYED": "0"
  },
  {
    "COMMENT": "GENERATED VIA SPACETRACK.ORG API",
    "ORIGINATOR": "18 SPCS",
    "NORAD_CAT_ID": "54754",
    "OBJECT_NAME": "SWOT",
    "OBJECT_TYPE": "PAYLOAD",
    "CLASSIFICATION_TYPE": "U",
    "INTLDES": "22173A",
    "EPOCH": "2023-03-20 13:29:30",
    "EPOCH_MICROSECONDS": "490080",
    "MEAN_MOTION": "14.09854492",
    "ECCENTRICITY": "0.0000958",
    "INCLINATION": "77.6057",
    "RA_OF_ASC_NODE": "196.9436",
    "ARG_OF_PERICENTER": "214.4897",
    "MEAN_ANOMALY": "145.6198",
    "EPHEMERIS_TYPE": "0",
    "ELEMENT_SET_NO": "999",
    "REV_AT_EPOCH": "1325",
    "BSTAR": "0.00015224",
    "MEAN_MOTION_DOT": "0.00000265",
    "MEAN_MOTION_DDOT": "0",
    "FILE": "3865912",
    "TLE_LINE0": "0 SWOT",
    "TLE_LINE1": "1 54754U 22173A   23079.56215845  .00000265  00000-0  15224-3 0  9997",
    "TLE_LINE2": "2 54754  77.6057 196.9436 0000958 214.4897 145.6198 14.09854492 13255",
    "OBJECT_ID": "2022-173A",
    "OBJECT_NUMBER": "54754",
    "SEMIMAJOR_AXIS": "7238.007",
    "PERIOD": "102.138",
    "APOGEE": "860.565",
    "PERIGEE": "859.178",
    "DECAYED": "0"
  }
]